[{"OBJECT_NAME":"STARLINK-3595","OBJECT_ID":"2022-022AU","EPOCH":"2026-03-09T22:32:24.505728","MEAN_MOTION":15.08798956,"ECCENTRICITY":0.00015385,"INCLINATION":53.2185,"RA_OF_ASC_NODE":357.9999,"ARG_OF_PERICENTER":99.9713,"MEAN_ANOMALY":260.1453,"EPHEMERIS_TYPE":0,"CLASSIFICATION_TYPE":"U","NORAD_CAT_ID":51894,"ELEMENT_SET_NO":999,"REV_AT_EPOCH":22334,"BSTAR":0.00052510238,"MEAN_MOTION_DOT":8.07e-5,"MEAN_MOTION_DDOT":0},{"OBJECT_NAME":"FENGYUN 1C DEB","OBJECT_ID":"1999-025CMN","EPOCH":"2026-03-08T02:55:26.099904","MEAN_MOTION":14.79998797,"ECCENTRICITY":0.01585695,"INCLINATION":99.2491,"RA_OF_ASC_NODE":174.5116,"ARG_OF_PERICENTER":31.4432,"MEAN_ANOMALY":329.6136,"EPHEMERIS_TYPE":0,"CLASSIFICATION_TYPE":"U","NORAD_CAT_ID":31937,"ELEMENT_SET_NO":999,"REV_AT_EPOCH":67331,"BSTAR":0.0010230441,"MEAN_MOTION_DOT":9.525e-5,"MEAN_MOTION_DDOT":0}]
